CCSDS_OMM_VERS = 2.0
CREATION_DATE  = 
ORIGINATOR     = 

OBJECT_NAME    = STARLINK-36626
OBJECT_ID      = 2026-018Q
CENTER_NAME    = EARTH
REF_FRAME      = TEME
TIME_SYSTEM    = UTC
MEAN_ELEMENT_THEORY = SGP/SGP4

EPOCH          = 2026-02-15T11:42:32.596992
MEAN_MOTION    = 15.80945945
ECCENTRICITY   = .0001239
INCLINATION    = 97.2854
RA_OF_ASC_NODE = 111.2112
ARG_OF_PERICENTER = 74.8832
MEAN_ANOMALY   = 285.2573

EPHEMERIS_TYPE = 0
CLASSIFICATION_TYPE = U
NORAD_CAT_ID   = 67603
ELEMENT_SET_NO = 999
REV_AT_EPOCH   = 381
BSTAR          = .12244E-2
MEAN_MOTION_DOT = .242456E-2
MEAN_MOTION_DDOT = 0

CCSDS_OMM_VERS = 2.0
CREATION_DATE  = 
ORIGINATOR     = 

OBJECT_NAME    = STARLINK-36605
OBJECT_ID      = 2026-018R
CENTER_NAME    = EARTH
REF_FRAME      = TEME
TIME_SYSTEM    = UTC
MEAN_ELEMENT_THEORY = SGP/SGP4

EPOCH          = 2026-02-15T12:00:01.999296
MEAN_MOTION    = 15.75173113
ECCENTRICITY   = .000114
INCLINATION    = 97.2843
RA_OF_ASC_NODE = 111.1995
ARG_OF_PERICENTER = 90.7516
MEAN_ANOMALY   = 278.1833

EPHEMERIS_TYPE = 0
CLASSIFICATION_TYPE = U
NORAD_CAT_ID   = 67604
ELEMENT_SET_NO = 999
REV_AT_EPOCH   = 377
BSTAR          = -.14732E-3
MEAN_MOTION_DOT = -.22031E-3
MEAN_MOTION_DDOT = 0

CCSDS_OMM_VERS = 2.0
CREATION_DATE  = 
ORIGINATOR     = 

OBJECT_NAME    = STARLINK-36281
OBJECT_ID      = 2026-018S
CENTER_NAME    = EARTH
REF_FRAME      = TEME
TIME_SYSTEM    = UTC
MEAN_ELEMENT_THEORY = SGP/SGP4

EPOCH          = 2026-02-15T11:45:18.123840
MEAN_MOTION    = 15.80943331
ECCENTRICITY   = .0000845
INCLINATION    = 97.2852
RA_OF_ASC_NODE = 111.2078
ARG_OF_PERICENTER = 64.3256
MEAN_ANOMALY   = 295.8099

EPHEMERIS_TYPE = 0
CLASSIFICATION_TYPE = U
NORAD_CAT_ID   = 67605
ELEMENT_SET_NO = 999
REV_AT_EPOCH   = 381
BSTAR          = .11571E-2
MEAN_MOTION_DOT = .228741E-2
MEAN_MOTION_DDOT = 0

CCSDS_OMM_VERS = 2.0
CREATION_DATE  = 
ORIGINATOR     = 

OBJECT_NAME    = STARLINK-35843
OBJECT_ID      = 2026-018T
CENTER_NAME    = EARTH
REF_FRAME      = TEME
TIME_SYSTEM    = UTC
MEAN_ELEMENT_THEORY = SGP/SGP4

EPOCH          = 2026-02-15T12:00:01.999296
MEAN_MOTION    = 15.75157195
ECCENTRICITY   = .0000996
INCLINATION    = 97.2847
RA_OF_ASC_NODE = 111.2135
ARG_OF_PERICENTER = 74.3029
MEAN_ANOMALY   = 326.6315

EPHEMERIS_TYPE = 0
CLASSIFICATION_TYPE = U
NORAD_CAT_ID   = 67606
ELEMENT_SET_NO = 999
REV_AT_EPOCH   = 383
BSTAR          = .65272E-4
MEAN_MOTION_DOT = .9603E-4
MEAN_MOTION_DDOT = 0

CCSDS_OMM_VERS = 2.0
CREATION_DATE  = 
ORIGINATOR     = 

OBJECT_NAME    = STARLINK-36351
OBJECT_ID      = 2026-018U
CENTER_NAME    = EARTH
REF_FRAME      = TEME
TIME_SYSTEM    = UTC
MEAN_ELEMENT_THEORY = SGP/SGP4

EPOCH          = 2026-02-15T11:39:50.025888
MEAN_MOTION    = 15.80909018
ECCENTRICITY   = .0000375
INCLINATION    = 97.2854
RA_OF_ASC_NODE = 111.2138
ARG_OF_PERICENTER = 195.2185
MEAN_ANOMALY   = 164.9072

EPHEMERIS_TYPE = 0
CLASSIFICATION_TYPE = U
NORAD_CAT_ID   = 67607
ELEMENT_SET_NO = 999
REV_AT_EPOCH   = 381
BSTAR          = .75146E-3
MEAN_MOTION_DOT = .146869E-2
MEAN_MOTION_DDOT = 0

CCSDS_OMM_VERS = 2.0
CREATION_DATE  = 
ORIGINATOR     = 

OBJECT_NAME    = STARLINK-36411
OBJECT_ID      = 2026-018V
CENTER_NAME    = EARTH
REF_FRAME      = TEME
TIME_SYSTEM    = UTC
MEAN_ELEMENT_THEORY = SGP/SGP4

EPOCH          = 2026-02-15T08:35:34.279296
MEAN_MOTION    = 15.80935288
ECCENTRICITY   = .0001251
INCLINATION    = 97.2861
RA_OF_ASC_NODE = 111.0801
ARG_OF_PERICENTER = 67.3006
MEAN_ANOMALY   = 292.8395

EPHEMERIS_TYPE = 0
CLASSIFICATION_TYPE = U
NORAD_CAT_ID   = 67608
ELEMENT_SET_NO = 999
REV_AT_EPOCH   = 379
BSTAR          = .12417E-2
MEAN_MOTION_DOT = .245872E-2
MEAN_MOTION_DDOT = 0

CCSDS_OMM_VERS = 2.0
CREATION_DATE  = 
ORIGINATOR     = 

OBJECT_NAME    = STARLINK-36312
OBJECT_ID      = 2026-018W
CENTER_NAME    = EARTH
REF_FRAME      = TEME
TIME_SYSTEM    = UTC
MEAN_ELEMENT_THEORY = SGP/SGP4

EPOCH          = 2026-02-15T11:36:09.787104
MEAN_MOTION    = 15.80906767
ECCENTRICITY   = .0000983
INCLINATION    = 97.2860
RA_OF_ASC_NODE = 111.2159
ARG_OF_PERICENTER = 103.2410
MEAN_ANOMALY   = 256.8968

EPHEMERIS_TYPE = 0
CLASSIFICATION_TYPE = U
NORAD_CAT_ID   = 67609
ELEMENT_SET_NO = 999
REV_AT_EPOCH   = 381
BSTAR          = .89687E-3
MEAN_MOTION_DOT = .175885E-2
MEAN_MOTION_DDOT = 0

CCSDS_OMM_VERS = 2.0
CREATION_DATE  = 
ORIGINATOR     = 

OBJECT_NAME    = STARLINK-36387
OBJECT_ID      = 2026-018X
CENTER_NAME    = EARTH
REF_FRAME      = TEME
TIME_SYSTEM    = UTC
MEAN_ELEMENT_THEORY = SGP/SGP4

EPOCH          = 2026-02-15T11:34:05.246688
MEAN_MOTION    = 15.80915140
ECCENTRICITY   = .0000779
INCLINATION    = 97.2863
RA_OF_ASC_NODE = 111.2176
ARG_OF_PERICENTER = 115.0198
MEAN_ANOMALY   = 245.1151

EPHEMERIS_TYPE = 0
CLASSIFICATION_TYPE = U
NORAD_CAT_ID   = 67610
ELEMENT_SET_NO = 999
REV_AT_EPOCH   = 381
BSTAR          = .88978E-3
MEAN_MOTION_DOT = .174533E-2
MEAN_MOTION_DDOT = 0

CCSDS_OMM_VERS = 2.0
CREATION_DATE  = 
ORIGINATOR     = 

OBJECT_NAME    = STARLINK-36636
OBJECT_ID      = 2026-018Y
CENTER_NAME    = EARTH
REF_FRAME      = TEME
TIME_SYSTEM    = UTC
MEAN_ELEMENT_THEORY = SGP/SGP4

EPOCH          = 2026-02-15T11:32:32.709696
MEAN_MOTION    = 15.80931347
ECCENTRICITY   = .0001101
INCLINATION    = 97.2749
RA_OF_ASC_NODE = 111.2134
ARG_OF_PERICENTER = 80.3909
MEAN_ANOMALY   = 279.7484

EPHEMERIS_TYPE = 0
CLASSIFICATION_TYPE = U
NORAD_CAT_ID   = 67611
ELEMENT_SET_NO = 999
REV_AT_EPOCH   = 381
BSTAR          = .10827E-2
MEAN_MOTION_DOT = .213521E-2
MEAN_MOTION_DDOT = 0

CCSDS_OMM_VERS = 2.0
CREATION_DATE  = 
ORIGINATOR     = 

OBJECT_NAME    = STARLINK-36407
OBJECT_ID      = 2026-018Z
CENTER_NAME    = EARTH
REF_FRAME      = TEME
TIME_SYSTEM    = UTC
MEAN_ELEMENT_THEORY = SGP/SGP4

EPOCH          = 2026-02-15T10:00:04.497408
MEAN_MOTION    = 15.80896885
ECCENTRICITY   = .0001351
INCLINATION    = 97.2856
RA_OF_ASC_NODE = 111.1531
ARG_OF_PERICENTER = 91.6509
MEAN_ANOMALY   = 268.4914

EPHEMERIS_TYPE = 0
CLASSIFICATION_TYPE = U
NORAD_CAT_ID   = 67612
ELEMENT_SET_NO = 999
REV_AT_EPOCH   = 385
BSTAR          = .10639E-2
MEAN_MOTION_DOT = .209386E-2
MEAN_MOTION_DDOT = 0

CCSDS_OMM_VERS = 2.0
CREATION_DATE  = 
ORIGINATOR     = 

OBJECT_NAME    = STARLINK-36597
OBJECT_ID      = 2026-018AA
CENTER_NAME    = EARTH
REF_FRAME      = TEME
TIME_SYSTEM    = UTC
MEAN_ELEMENT_THEORY = SGP/SGP4

EPOCH          = 2026-02-15T11:29:45.160224
MEAN_MOTION    = 15.80926727
ECCENTRICITY   = .0000842
INCLINATION    = 97.2860
RA_OF_ASC_NODE = 111.2210
ARG_OF_PERICENTER = 116.5831
MEAN_ANOMALY   = 243.5524

EPHEMERIS_TYPE = 0
CLASSIFICATION_TYPE = U
NORAD_CAT_ID   = 67613
ELEMENT_SET_NO = 999
REV_AT_EPOCH   = 381
BSTAR          = .108E-2
MEAN_MOTION_DOT = .212939E-2
MEAN_MOTION_DDOT = 0

CCSDS_OMM_VERS = 2.0
CREATION_DATE  = 
ORIGINATOR     = 

OBJECT_NAME    = NEONSAT-1A
OBJECT_ID      = 2026-019A
CENTER_NAME    = EARTH
REF_FRAME      = TEME
TIME_SYSTEM    = UTC
MEAN_ELEMENT_THEORY = SGP/SGP4

EPOCH          = 2026-02-15T08:19:32.362176
MEAN_MOTION    = 15.07603603
ECCENTRICITY   = .0012025
INCLINATION    = 97.4096
RA_OF_ASC_NODE = 170.7283
ARG_OF_PERICENTER = 248.3026
MEAN_ANOMALY   = 111.6922

EPHEMERIS_TYPE = 0
CLASSIFICATION_TYPE = U
NORAD_CAT_ID   = 67614
ELEMENT_SET_NO = 999
REV_AT_EPOCH   = 245
BSTAR          = .11105E-3
MEAN_MOTION_DOT = .1632E-4
MEAN_MOTION_DDOT = 0

