STARLINK-36626          
1 67603U 26018Q   26046.48787728  .00242456  00000+0  12244-2 0  9995
2 67603  97.2854 111.2112 0001239  74.8832 285.2573 15.80945945  3819
STARLINK-36605          
1 67604U 26018R   26046.50002314 -.00022031  00000+0 -14732-3 0  9992
2 67604  97.2843 111.1995 0001140  90.7516 278.1833 15.75173113  3772
STARLINK-36281          
1 67605U 26018S   26046.48979310  .00228741  00000+0  11571-2 0  9990
2 67605  97.2852 111.2078 0000845  64.3256 295.8099 15.80943331  3813
STARLINK-35843          
1 67606U 26018T   26046.50002314  .00009603  00000+0  65272-4 0  9998
2 67606  97.2847 111.2135 0000996  74.3029 326.6315 15.75157195  3833
STARLINK-36351          
1 67607U 26018U   26046.48599567  .00146869  00000+0  75146-3 0  9993
2 67607  97.2854 111.2138 0000375 195.2185 164.9072 15.80909018  3818
STARLINK-36411          
1 67608U 26018V   26046.35803564  .00245872  00000+0  12417-2 0  9990
2 67608  97.2861 111.0801 0001251  67.3006 292.8395 15.80935288  3791
STARLINK-36312          
1 67609U 26018W   26046.48344661  .00175885  00000+0  89687-3 0  9993
2 67609  97.2860 111.2159 0000983 103.2410 256.8968 15.80906767  3818
STARLINK-36387          
1 67610U 26018X   26046.48200517  .00174533  00000+0  88978-3 0  9997
2 67610  97.2863 111.2176 0000779 115.0198 245.1151 15.80915140  3819
STARLINK-36636          
1 67611U 26018Y   26046.48093414  .00213521  00000+0  10827-2 0  9992
2 67611  97.2749 111.2134 0001101  80.3909 279.7484 15.80931347  3810
STARLINK-36407          
1 67612U 26018Z   26046.41671872  .00209386  00000+0  10639-2 0  9991
2 67612  97.2856 111.1531 0001351  91.6509 268.4914 15.80896885  3852
STARLINK-36597          
1 67613U 26018AA  26046.47899491  .00212939  00000+0  10800-2 0  9995
2 67613  97.2860 111.2210 0000842 116.5831 243.5524 15.80926727  3818
NEONSAT-1A              
1 67614U 26019A   26046.34690234  .00001632  00000+0  11105-3 0  9993
2 67614  97.4096 170.7283 0012025 248.3026 111.6922 15.07603603  2458
